#aV2023 11 25  0  0  0.00000000     288 DD+AD WGS84 FIT  NGA
## 2289 518400.00000000   300.00000000 60273 0.0000000000000
+   32     1  2  3  4  5  6  7  8  9 10 11 12 13 14 15 16 17
+         18 19 20 21 22 23 24 25 26 27 28 29 30 31 32  0  0
+          0  0  0  0  0  0  0  0  0  0  0  0  0  0  0  0  0
+          0  0  0  0  0  0  0  0  0  0  0  0  0  0  0  0  0
+          0  0  0  0  0  0  0  0  0  0  0  0  0  0  0  0  0
++         2  2  2  2  2  2  2  2  2  2  2  2  2  2  2  2  2
++         2  2  2  2  2  2  2  2  2  2  2  2  2  2  2  0  0
++         0  0  0  0  0  0  0  0  0  0  0  0  0  0  0  0  0
++         0  0  0  0  0  0  0  0  0  0  0  0  0  0  0  0  0
++         0  0  0  0  0  0  0  0  0  0  0  0  0  0  0  0  0
%c cc cc ccc ccc cccc cccc cccc cccc ccccc ccccc ccccc ccccc
%c cc cc ccc ccc cccc cccc cccc cccc ccccc ccccc ccccc ccccc
%f  0.0000000  0.000000000  0.00000000000  0.000000000000000
%f  0.0000000  0.000000000  0.00000000000  0.000000000000000
%i    0    0    0    0      0      0      0      0         0
%i    0    0    0    0      0      0      0      0         0
/*      NGA, ST. LOUIS,MO.                                  
/*   EPHEMERIS COMPUTED FROM 2 DAYS OF DATA                 
/*   EPOCHA v8 SMOOTHER                                     
/*   G2139 IERS2010 SATIGS SATAPC                           
*  2023 11 25  6 20  0.00000000
P  1  21682.265817  15233.997957  -3980.892667    163.316167                    
V  1  -4717.099657   -912.572561 -31657.193560      0.002487                    
P  2  19407.526620  15437.805994  -9280.357476   -524.378314                    
V  2 -12329.051696  -2840.559019 -28737.686166      0.051242                    
P  3  11756.372898  16703.783646  16889.072262      9.105098                    
V  3   -742.735191  21666.862915 -20629.019493      0.261017                    
P  4  16966.030829   5985.695172  19588.818977    222.250658                    
V  4 -20971.829596  13303.665549  13976.136525      0.103242                    
P  5  -6270.825813 -25024.309105  -6292.329747   -151.683278                    
V  5   1892.336059  -7939.983834  30648.824108     -0.014408                    
P  6   9307.999622 -11476.616724  22148.736482    496.647394                    
V  6  24309.181542  13608.720772  -3079.294603     -0.105473                    
P  7  23802.159924   3738.238011 -11213.982031      4.551145                    
V  7  11865.946372   9213.686520  26636.938657     -0.097968                    
P  8   9517.568637  12108.157020 -21731.586550   -153.767453                    
V  8 -22889.190077  15074.966683  -1222.560020     -0.018495                    
P  9  22942.662382  -4320.139985  12633.886502      7.274225                    
V  9 -12248.026281  10821.128291  25704.197551      0.114173                    
P 10 -11007.142954  16577.120361 -17231.193676    -62.735392                    
V 10  -2272.706247 -22277.956254 -20080.847754     -0.015361                    
P 11  -2675.347451 -17573.145297  19773.518861   -474.539290                    
V 11  22002.128478  11980.384229  13588.507166     -0.158661                    
P 12 -10274.902855 -18482.588578  15838.421699   -450.664144                    
V 12   2691.228805 -20497.616034 -21721.021318     -0.040480                    
P 13   1831.642858 -16462.312070 -20916.392407    598.939947                    
V 13  24256.264330  -9731.594955  10088.528768      0.040201                    
P 14  13470.232935 -12946.030198 -18789.378894    252.924582                    
V 14   1743.648259  24004.401077 -15443.740024      0.106858                    
P 15 -11237.464996 -11485.308277 -21643.325375    100.530630                    
V 15  20188.592897 -17086.648301  -1229.239565      0.037817                    
P 16   -509.358377  26279.946433  -1424.906597   -415.989060                    
V 16  -3180.690526   1271.224684  32058.935203      0.068360                    
P 17  22962.880884 -13450.046603   1455.720657    722.873698                    
V 17   2269.152854   1453.341034 -31834.973312     -0.004111                    
P 18 -22855.754904  -2360.249437 -13468.239811   -488.778307                    
V 18 -13976.708915  -9883.585164  25245.930506     -0.105953                    
P 19  18638.853231 -16058.628689   9349.778161    403.628869                    
V 19  12153.769678  -2974.678126 -29087.271358      0.052343                    
P 20   -147.444523 -25715.815367   7063.715752    399.896047                    
V 20   4516.324572   8127.446435  29713.087724     -0.019264                    
P 21  17377.045972  16489.510931 -11910.300444    143.354454                    
V 21 -15032.452484  -4486.199098 -26079.635073     -0.010264                    
P 22  10734.257158 -19928.016671 -13680.783888     77.642628                    
V 22    977.508110  18096.744957 -24512.880605     -0.069183                    
P 23 -14627.149968   3242.018209 -21906.652974    104.753582                    
V 23  -1930.853244 -27746.394177  -2995.514017      0.065542                    
P 24 -19668.447206 -15824.686896  -9308.692833   -379.166402                    
V 24  11425.524065   1704.998126 -27841.339392     -0.086527                    
P 25 -15086.749365  -5768.608779  20803.075162    478.859992                    
V 25   -561.952827 -27153.269363  -7549.031501      0.016069                    
P 26  -4169.128392  24386.412240   9023.614146    214.204171                    
V 26  -4879.971189 -11358.397673  28384.565573     -0.027832                    
P 27  -4670.073144  18280.055352 -18779.361891    -74.610865                    
V 27 -20701.058742  11129.491002  16618.288747     -0.050929                    
P 28 -11200.722978  11090.868677  21352.952096    -54.101060                    
V 28 -24107.246303 -12542.764725  -6122.856117     -0.090017                    
P 29 -23046.763651   1900.064346  13112.582953   -610.127633                    
V 29  13930.954435  -9325.052503  25649.300830      0.001496                    
P 30  18212.989840  -5610.306190 -18484.027392   -464.576627                    
V 30  20019.286646  12824.452791  15465.979939      0.041274                    
P 31  -3033.391254  15479.178247  21110.017023   -226.048879                    
V 31 -24203.221829 -12805.359347   6261.972433     -0.003197                    
P 32 -20293.985467  16435.380824   4362.654466   -589.615487                    
V 32  -6087.299010    371.795780 -31233.945071     -0.041944                    
EOF
